start=new Date('2022-05-14T00:00:00.000Z').valueOf();
sats=[{"BSTAR":"0.00009020000000","NORAD_CAT_ID":"46083","ECCENTRICITY":"0.00016320","PERIAPSIS":"546.061","OBJECT_ID":"2020-055BJ","OBJECT_NAME":"STARLINK-1579","MEAN_MOTION":"15.06407292","SITE":"AFETR","PERIOD":"95.592","GP_ID":"203439016","COUNTRY_CODE":"US","MEAN_MOTION_DDOT":"0.0000000000000","OBJECT_TYPE":"PAYLOAD","REV_AT_EPOCH":"9887","ELEMENT_SET_NO":"999","CLASSIFICATION_TYPE":"U","DECAY_DATE":null,"RCS_SIZE":"LARGE","SEMIMAJOR_AXIS":"6925.326","INCLINATION":"53.0530","EPOCH":"2022-05-13T13:53:41.014752","MEAN_ANOMALY":"303.1867","MEAN_MOTION_DOT":"0.00001062","CENTER_NAME":"EARTH","TLE_LINE2":"2 46083  53.0530 243.9926 0001632  56.9278 303.1867 15.06407292 98879","MEAN_ELEMENT_THEORY":"SGP4","RA_OF_ASC_NODE":"243.9926","REF_FRAME":"TEME","LAUNCH_DATE":"2020-08-07","TIME_SYSTEM":"UTC","FILE":"3443851","EPHEMERIS_TYPE":"0","TLE_LINE1":"1 46083U 20055BJ  22133.57894693  .00001062  00000-0  90200-4 0  9999","ARG_OF_PERICENTER":"56.9278","APOAPSIS":"548.321"},{"ECCENTRICITY":"0.00020270","NORAD_CAT_ID":"46117","BSTAR":"0.00006748500000","MEAN_MOTION":"15.06400243","OBJECT_ID":"2020-057A","OBJECT_NAME":"STARLINK-1585","PERIAPSIS":"545.809","CLASSIFICATION_TYPE":"U","DECAY_DATE":null,"OBJECT_TYPE":"PAYLOAD","ELEMENT_SET_NO":"999","REV_AT_EPOCH":"9596","COUNTRY_CODE":"US","MEAN_MOTION_DDOT":"0.0000000000000","SITE":"AFETR","GP_ID":"203475097","PERIOD":"95.592","EPOCH":"2022-05-13T21:03:36.825120","MEAN_ANOMALY":"307.2426","SEMIMAJOR_AXIS":"6925.348","INCLINATION":"53.0545","RCS_SIZE":"LARGE","TLE_LINE2":"2 46117  53.0545  82.6551 0002027  52.8748 307.2426 15.06400243 95963","MEAN_MOTION_DOT":"0.00000724","CENTER_NAME":"EARTH","MEAN_ELEMENT_THEORY":"SGP4","REF_FRAME":"TEME","LAUNCH_DATE":"2020-08-18","TIME_SYSTEM":"UTC","RA_OF_ASC_NODE":"82.6551","APOAPSIS":"548.617","ARG_OF_PERICENTER":"52.8748","TLE_LINE1":"1 46117U 20057A   22133.87750955  .00000724  00000-0  67485-4 0  9997","EPHEMERIS_TYPE":"0","FILE":"3444395"},{"FILE":"3444395","EPHEMERIS_TYPE":"0","TLE_LINE1":"1 46118U 20057B   22133.88672715  .00000699  00000-0  65858-4 0  9999","ARG_OF_PERICENTER":"49.3761","APOAPSIS":"548.645","RA_OF_ASC_NODE":"102.6127","REF_FRAME":"TEME","TIME_SYSTEM":"UTC","LAUNCH_DATE":"2020-08-18","MEAN_ELEMENT_THEORY":"SGP4","MEAN_MOTION_DOT":"0.00000699","CENTER_NAME":"EARTH","TLE_LINE2":"2 46118  53.0543 102.6127 0002050  49.3761 310.7406 15.06396026 96967","RCS_SIZE":"LARGE","SEMIMAJOR_AXIS":"6925.361","INCLINATION":"53.0543","EPOCH":"2022-05-13T21:16:53.225760","MEAN_ANOMALY":"310.7406","SITE":"AFETR","GP_ID":"203476348","PERIOD":"95.592","COUNTRY_CODE":"US","MEAN_MOTION_DDOT":"0.0000000000000","REV_AT_EPOCH":"9696","OBJECT_TYPE":"PAYLOAD","ELEMENT_SET_NO":"999","CLASSIFICATION_TYPE":"U","DECAY_DATE":null,"PERIAPSIS":"545.806","OBJECT_ID":"2020-057B","OBJECT_NAME":"STARLINK-1588","MEAN_MOTION":"15.06396026","BSTAR":"0.00006585800000","NORAD_CAT_ID":"46118","ECCENTRICITY":"0.00020500"},{"MEAN_ELEMENT_THEORY":"SGP4","TLE_LINE2":"2 46119  53.0538 103.8669 0002229  55.2826 304.8372 15.06398859 96908","MEAN_MOTION_DOT":"0.00000998","CENTER_NAME":"EARTH","APOAPSIS":"548.761","EPHEMERIS_TYPE":"0","TLE_LINE1":"1 46119U 20057C   22133.61028076  .00000998  00000-0  85929-4 0  9999","ARG_OF_PERICENTER":"55.2826","FILE":"3444395","REF_FRAME":"TEME","LAUNCH_DATE":"2020-08-18","TIME_SYSTEM":"UTC","RA_OF_ASC_NODE":"103.8669","MEAN_MOTION":"15.06398859","OBJECT_NAME":"STARLINK-1593","OBJECT_ID":"2020-057C","PERIAPSIS":"545.673","NORAD_CAT_ID":"46119","ECCENTRICITY":"0.00022290","BSTAR":"0.00008592900000","EPOCH":"2022-05-13T14:38:48.257664","MEAN_ANOMALY":"304.8372","SEMIMAJOR_AXIS":"6925.352","INCLINATION":"53.0538","RCS_SIZE":"LARGE","CLASSIFICATION_TYPE":"U","DECAY_DATE":null,"ELEMENT_SET_NO":"999","OBJECT_TYPE":"PAYLOAD","REV_AT_EPOCH":"9690","MEAN_MOTION_DDOT":"0.0000000000000","COUNTRY_CODE":"US","SITE":"AFETR","PERIOD":"95.592","GP_ID":"203476599"},{"OBJECT_NAME":"STARLINK-1601","OBJECT_ID":"2020-057D","MEAN_MOTION":"15.06414534","PERIAPSIS":"545.572","NORAD_CAT_ID":"46120","ECCENTRICITY":"0.00023060","BSTAR":"0.00012213000000","INCLINATION":"53.0555","SEMIMAJOR_AXIS":"6925.304","MEAN_ANOMALY":"314.0657","EPOCH":"2022-05-13T07:55:26.051232","RCS_SIZE":"LARGE","OBJECT_TYPE":"PAYLOAD","REV_AT_EPOCH":"9688","ELEMENT_SET_NO":"999","DECAY_DATE":null,"CLASSIFICATION_TYPE":"U","PERIOD":"95.591","GP_ID":"203440272","SITE":"AFETR","COUNTRY_CODE":"US","MEAN_MOTION_DDOT":"0.0000000000000","MEAN_ELEMENT_THEORY":"SGP4","TLE_LINE2":"2 46120  53.0555 105.1244 0002306  46.0522 314.0657 15.06414534 96885","CENTER_NAME":"EARTH","MEAN_MOTION_DOT":"0.00001538","APOAPSIS":"548.766","FILE":"3443851","ARG_OF_PERICENTER":"46.0522","TLE_LINE1":"1 46120U 20057D   22133.33016263  .00001538  00000-0  12213-3 0  9991","EPHEMERIS_TYPE":"0","LAUNCH_DATE":"2020-08-18","TIME_SYSTEM":"UTC","REF_FRAME":"TEME","RA_OF_ASC_NODE":"105.1244"},{"RCS_SIZE":"LARGE","MEAN_ANOMALY":"302.8591","EPOCH":"2022-05-13T21:30:09.419040","INCLINATION":"53.0561","SEMIMAJOR_AXIS":"6925.400","MEAN_MOTION_DDOT":"0.0000000000000","COUNTRY_CODE":"US","PERIOD":"95.593","GP_ID":"203475597","SITE":"AFETR","DECAY_DATE":null,"CLASSIFICATION_TYPE":"U","OBJECT_TYPE":"PAYLOAD","ELEMENT_SET_NO":"999","REV_AT_EPOCH":"9596","PERIAPSIS":"545.873","MEAN_MOTION":"15.06383306","OBJECT_NAME":"STARLINK-1602","OBJECT_ID":"2020-057E","BSTAR":"0.00018763000000","ECCENTRICITY":"0.00020100","NORAD_CAT_ID":"46121","ARG_OF_PERICENTER":"57.2592","TLE_LINE1":"1 46121U 20057E   22133.89594235  .00002513  00000-0  18763-3 0  9993","EPHEMERIS_TYPE":"0","FILE":"3444395","APOAPSIS":"548.657","RA_OF_ASC_NODE":"82.5879","LAUNCH_DATE":"2020-08-18","TIME_SYSTEM":"UTC","REF_FRAME":"TEME","MEAN_ELEMENT_THEORY":"SGP4","CENTER_NAME":"EARTH","MEAN_MOTION_DOT":"0.00002513","TLE_LINE2":"2 46121  53.0561  82.5879 0002010  57.2592 302.8591 15.06383306 95960"},{"TLE_LINE2":"2 46122  53.0549  63.1225 0001896  55.7142 304.4027 15.06401741 97487","CENTER_NAME":"EARTH","MEAN_MOTION_DOT":"0.00000476","MEAN_ELEMENT_THEORY":"SGP4","REF_FRAME":"TEME","LAUNCH_DATE":"2020-08-18","TIME_SYSTEM":"UTC","RA_OF_ASC_NODE":"63.1225","APOAPSIS":"548.521","TLE_LINE1":"1 46122U 20057F   22133.77246209  .00000476  00000-0  50827-4 0  9990","EPHEMERIS_TYPE":"0","ARG_OF_PERICENTER":"55.7142","FILE":"3444395","ECCENTRICITY":"0.00018960","NORAD_CAT_ID":"46122","BSTAR":"0.00005082700000","MEAN_MOTION":"15.06401741","OBJECT_NAME":"STARLINK-1604","OBJECT_ID":"2020-057F","PERIAPSIS":"545.895","CLASSIFICATION_TYPE":"U","DECAY_DATE":null,"OBJECT_TYPE":"PAYLOAD","ELEMENT_SET_NO":"999","REV_AT_EPOCH":"9748","MEAN_MOTION_DDOT":"0.0000000000000","COUNTRY_CODE":"US","SITE":"AFETR","PERIOD":"95.592","GP_ID":"203475849","EPOCH":"2022-05-13T18:32:20.724576","MEAN_ANOMALY":"304.4027","SEMIMAJOR_AXIS":"6925.343","INCLINATION":"53.0549","RCS_SIZE":"LARGE"},{"RA_OF_ASC_NODE":"62.9058","REF_FRAME":"TEME","LAUNCH_DATE":"2020-08-18","TIME_SYSTEM":"UTC","ARG_OF_PERICENTER":"44.9667","TLE_LINE1":"1 46123U 20057G   22133.82406600 -.00000262  00000-0  13539-5 0  9994","EPHEMERIS_TYPE":"0","FILE":"3444395","APOAPSIS":"548.793","CENTER_NAME":"EARTH","MEAN_MOTION_DOT":"-0.00000262","TLE_LINE2":"2 46123  53.0562  62.9058 0002268  44.9667 315.1505 15.06397284 97510","MEAN_ELEMENT_THEORY":"SGP4","COUNTRY_CODE":"US","MEAN_MOTION_DDOT":"0.0000000000000","SITE":"AFETR","GP_ID":"203476100","PERIOD":"95.592","CLASSIFICATION_TYPE":"U","DECAY_DATE":null,"OBJECT_TYPE":"PAYLOAD","REV_AT_EPOCH":"9751","ELEMENT_SET_NO":"999","RCS_SIZE":"LARGE","EPOCH":"2022-05-13T19:46:39.302400","MEAN_ANOMALY":"315.1505","SEMIMAJOR_AXIS":"6925.357","INCLINATION":"53.0562","BSTAR":"0.00000135390000","ECCENTRICITY":"0.00022680","NORAD_CAT_ID":"46123","PERIAPSIS":"545.651","MEAN_MOTION":"15.06397284","OBJECT_NAME":"STARLINK-1605","OBJECT_ID":"2020-057G"},{"ELEMENT_SET_NO":"999","OBJECT_TYPE":"PAYLOAD","REV_AT_EPOCH":"9624","DECAY_DATE":null,"CLASSIFICATION_TYPE":"U","PERIOD":"95.592","GP_ID":"203474848","SITE":"AFETR","COUNTRY_CODE":"US","MEAN_MOTION_DDOT":"0.0000000000000","INCLINATION":"53.0544","SEMIMAJOR_AXIS":"6925.366","MEAN_ANOMALY":"296.7374","EPOCH":"2022-05-13T19:57:16.476480","RCS_SIZE":"LARGE","NORAD_CAT_ID":"46124","ECCENTRICITY":"0.00017900","BSTAR":"-0.00002030900000","OBJECT_NAME":"STARLINK-1614","OBJECT_ID":"2020-057H","MEAN_MOTION":"15.06394471","PERIAPSIS":"545.991","LAUNCH_DATE":"2020-08-18","TIME_SYSTEM":"UTC","REF_FRAME":"TEME","RA_OF_ASC_NODE":"62.8715","APOAPSIS":"548.470","FILE":"3444395","ARG_OF_PERICENTER":"63.3798","TLE_LINE1":"1 46124U 20057H   22133.83144070 -.00000584  00000-0 -20309-4 0  9996","EPHEMERIS_TYPE":"0","TLE_LINE2":"2 46124  53.0544  62.8715 0001790  63.3798 296.7374 15.06394471 96241","CENTER_NAME":"EARTH","MEAN_MOTION_DOT":"-0.00000584","MEAN_ELEMENT_THEORY":"SGP4"},{"CLASSIFICATION_TYPE":"U","DECAY_DATE":null,"OBJECT_TYPE":"PAYLOAD","REV_AT_EPOCH":"9694","ELEMENT_SET_NO":"999","COUNTRY_CODE":"US","MEAN_MOTION_DDOT":"0.0000000000000","SITE":"AFETR","PERIOD":"95.592","GP_ID":"203475098","EPOCH":"2022-05-13T21:06:16.532064","MEAN_ANOMALY":"305.6460","SEMIMAJOR_AXIS":"6925.333","INCLINATION":"53.0549","RCS_SIZE":"LARGE","ECCENTRICITY":"0.00025660","NORAD_CAT_ID":"46125","BSTAR":"0.00024645000000","MEAN_MOTION":"15.06405019","OBJECT_ID":"2020-057J","OBJECT_NAME":"STARLINK-1618","PERIAPSIS":"545.421","REF_FRAME":"TEME","TIME_SYSTEM":"UTC","LAUNCH_DATE":"2020-08-18","RA_OF_ASC_NODE":"102.6509","APOAPSIS":"548.975","TLE_LINE1":"1 46125U 20057J   22133.87935801  .00003391  00000-0  24645-3 0  9994","ARG_OF_PERICENTER":"54.4768","EPHEMERIS_TYPE":"0","FILE":"3444395","TLE_LINE2":"2 46125  53.0549 102.6509 0002566  54.4768 305.6460 15.06405019 96945","CENTER_NAME":"EARTH","MEAN_MOTION_DOT":"0.00003391","MEAN_ELEMENT_THEORY":"SGP4"}];
